CCSDS_OMM_VERS = 2.0
CREATION_DATE  = 
ORIGINATOR     = 

OBJECT_NAME    = HULIANWANG DIGUI-147
OBJECT_ID      = 2026-013B
CENTER_NAME    = EARTH
REF_FRAME      = TEME
TIME_SYSTEM    = UTC
MEAN_ELEMENT_THEORY = SGP/SGP4

EPOCH          = 2026-02-08T14:17:03.672960
MEAN_MOTION    = 13.82635589
ECCENTRICITY   = .00009754
INCLINATION    = 50.0037
RA_OF_ASC_NODE = 103.9536
ARG_OF_PERICENTER = 276.3245
MEAN_ANOMALY   = 83.7539

EPHEMERIS_TYPE = 0
CLASSIFICATION_TYPE = U
NORAD_CAT_ID   = 67523
ELEMENT_SET_NO = 999
REV_AT_EPOCH   = 283
BSTAR          = .11167312E-3
MEAN_MOTION_DOT = -.21E-6
MEAN_MOTION_DDOT = 0

CCSDS_OMM_VERS = 2.0
CREATION_DATE  = 
ORIGINATOR     = 

OBJECT_NAME    = HULIANWANG DIGUI-148
OBJECT_ID      = 2026-013C
CENTER_NAME    = EARTH
REF_FRAME      = TEME
TIME_SYSTEM    = UTC
MEAN_ELEMENT_THEORY = SGP/SGP4

EPOCH          = 2026-02-08T15:55:52.961952
MEAN_MOTION    = 13.82980871
ECCENTRICITY   = .00010264
INCLINATION    = 49.9933
RA_OF_ASC_NODE = 103.7491
ARG_OF_PERICENTER = 346.5569
MEAN_ANOMALY   = 13.5299

EPHEMERIS_TYPE = 0
CLASSIFICATION_TYPE = U
NORAD_CAT_ID   = 67524
ELEMENT_SET_NO = 999
REV_AT_EPOCH   = 284
BSTAR          = .13380469E-3
MEAN_MOTION_DOT = .4E-7
MEAN_MOTION_DDOT = 0

CCSDS_OMM_VERS = 2.0
CREATION_DATE  = 
ORIGINATOR     = 

OBJECT_NAME    = HULIANWANG DIGUI-149
OBJECT_ID      = 2026-013D
CENTER_NAME    = EARTH
REF_FRAME      = TEME
TIME_SYSTEM    = UTC
MEAN_ELEMENT_THEORY = SGP/SGP4

EPOCH          = 2026-02-09T09:12:40.755456
MEAN_MOTION    = 13.82648077
ECCENTRICITY   = .0001973
INCLINATION    = 50.0095
RA_OF_ASC_NODE = 100.8660
ARG_OF_PERICENTER = 326.7374
MEAN_ANOMALY   = 33.3397

EPHEMERIS_TYPE = 0
CLASSIFICATION_TYPE = U
NORAD_CAT_ID   = 67525
ELEMENT_SET_NO = 999
REV_AT_EPOCH   = 294
BSTAR          = .11611E-3
MEAN_MOTION_DOT = -.17E-6
MEAN_MOTION_DDOT = 0

CCSDS_OMM_VERS = 2.0
CREATION_DATE  = 
ORIGINATOR     = 

OBJECT_NAME    = HULIANWANG DIGUI-150
OBJECT_ID      = 2026-013E
CENTER_NAME    = EARTH
REF_FRAME      = TEME
TIME_SYSTEM    = UTC
MEAN_ELEMENT_THEORY = SGP/SGP4

EPOCH          = 2026-02-09T12:31:51.970656
MEAN_MOTION    = 13.82369291
ECCENTRICITY   = .00031725
INCLINATION    = 50.0085
RA_OF_ASC_NODE = 100.2082
ARG_OF_PERICENTER = 190.5978
MEAN_ANOMALY   = 169.4850

EPHEMERIS_TYPE = 0
CLASSIFICATION_TYPE = U
NORAD_CAT_ID   = 67526
ELEMENT_SET_NO = 999
REV_AT_EPOCH   = 298
BSTAR          = .11849837E-3
MEAN_MOTION_DOT = -.14E-6
MEAN_MOTION_DDOT = 0

CCSDS_OMM_VERS = 2.0
CREATION_DATE  = 
ORIGINATOR     = 

OBJECT_NAME    = HULIANWANG DIGUI-151
OBJECT_ID      = 2026-013F
CENTER_NAME    = EARTH
REF_FRAME      = TEME
TIME_SYSTEM    = UTC
MEAN_ELEMENT_THEORY = SGP/SGP4

EPOCH          = 2026-02-09T10:45:45.958176
MEAN_MOTION    = 13.84664897
ECCENTRICITY   = .0002672
INCLINATION    = 50.0014
RA_OF_ASC_NODE = 100.5416
ARG_OF_PERICENTER = 207.3402
MEAN_ANOMALY   = 152.7353

EPHEMERIS_TYPE = 0
CLASSIFICATION_TYPE = U
NORAD_CAT_ID   = 67527
ELEMENT_SET_NO = 999
REV_AT_EPOCH   = 295
BSTAR          = .1420007E-3
MEAN_MOTION_DOT = .16E-6
MEAN_MOTION_DDOT = 0

CCSDS_OMM_VERS = 2.0
CREATION_DATE  = 
ORIGINATOR     = 

OBJECT_NAME    = HULIANWANG DIGUI-152
OBJECT_ID      = 2026-013G
CENTER_NAME    = EARTH
REF_FRAME      = TEME
TIME_SYSTEM    = UTC
MEAN_ELEMENT_THEORY = SGP/SGP4

EPOCH          = 2026-02-08T08:45:10.609632
MEAN_MOTION    = 13.84453091
ECCENTRICITY   = .00009844
INCLINATION    = 50.0066
RA_OF_ASC_NODE = 104.7990
ARG_OF_PERICENTER = 46.0388
MEAN_ANOMALY   = 314.0590

EPHEMERIS_TYPE = 0
CLASSIFICATION_TYPE = U
NORAD_CAT_ID   = 67528
ELEMENT_SET_NO = 999
REV_AT_EPOCH   = 280
BSTAR          = .14213913E-3
MEAN_MOTION_DOT = .16E-6
MEAN_MOTION_DDOT = 0

CCSDS_OMM_VERS = 2.0
CREATION_DATE  = 
ORIGINATOR     = 

OBJECT_NAME    = HULIANWANG DIGUI-153
OBJECT_ID      = 2026-013H
CENTER_NAME    = EARTH
REF_FRAME      = TEME
TIME_SYSTEM    = UTC
MEAN_ELEMENT_THEORY = SGP/SGP4

EPOCH          = 2026-02-09T07:09:13.629888
MEAN_MOTION    = 13.84012208
ECCENTRICITY   = .00042419
INCLINATION    = 50.0123
RA_OF_ASC_NODE = 101.0584
ARG_OF_PERICENTER = 208.8340
MEAN_ANOMALY   = 151.2322

EPHEMERIS_TYPE = 0
CLASSIFICATION_TYPE = U
NORAD_CAT_ID   = 67529
ELEMENT_SET_NO = 999
REV_AT_EPOCH   = 292
BSTAR          = .21765854E-4
MEAN_MOTION_DOT = -.119E-5
MEAN_MOTION_DDOT = 0

CCSDS_OMM_VERS = 2.0
CREATION_DATE  = 
ORIGINATOR     = 

OBJECT_NAME    = HULIANWANG DIGUI-154
OBJECT_ID      = 2026-013J
CENTER_NAME    = EARTH
REF_FRAME      = TEME
TIME_SYSTEM    = UTC
MEAN_ELEMENT_THEORY = SGP/SGP4

EPOCH          = 2026-02-09T19:13:56.103456
MEAN_MOTION    = 13.83077072
ECCENTRICITY   = .0002039
INCLINATION    = 50.0088
RA_OF_ASC_NODE = 99.0486
ARG_OF_PERICENTER = 168.6141
MEAN_ANOMALY   = 191.4801

EPHEMERIS_TYPE = 0
CLASSIFICATION_TYPE = U
NORAD_CAT_ID   = 67530
ELEMENT_SET_NO = 999
REV_AT_EPOCH   = 299
BSTAR          = .17983E-3
MEAN_MOTION_DOT = .54E-6
MEAN_MOTION_DDOT = 0

CCSDS_OMM_VERS = 2.0
CREATION_DATE  = 
ORIGINATOR     = 

OBJECT_NAME    = CZ-12 R/B
OBJECT_ID      = 2026-013K
CENTER_NAME    = EARTH
REF_FRAME      = TEME
TIME_SYSTEM    = UTC
MEAN_ELEMENT_THEORY = SGP/SGP4

EPOCH          = 2026-02-10T09:53:49.288128
MEAN_MOTION    = 14.14458084
ECCENTRICITY   = .006895
INCLINATION    = 49.9948
RA_OF_ASC_NODE = 93.6188
ARG_OF_PERICENTER = 203.7924
MEAN_ANOMALY   = 155.9792

EPHEMERIS_TYPE = 0
CLASSIFICATION_TYPE = U
NORAD_CAT_ID   = 67531
ELEMENT_SET_NO = 999
REV_AT_EPOCH   = 312
BSTAR          = .57846E-4
MEAN_MOTION_DOT = -.41E-6
MEAN_MOTION_DDOT = 0

CCSDS_OMM_VERS = 2.0
CREATION_DATE  = 
ORIGINATOR     = 

OBJECT_NAME    = STARLINK-36587
OBJECT_ID      = 2026-014A
CENTER_NAME    = EARTH
REF_FRAME      = TEME
TIME_SYSTEM    = UTC
MEAN_ELEMENT_THEORY = SGP/SGP4

EPOCH          = 2026-02-10T12:28:20.498880
MEAN_MOTION    = 15.80901152
ECCENTRICITY   = .0001439
INCLINATION    = 97.2827
RA_OF_ASC_NODE = 285.0722
ARG_OF_PERICENTER = 75.0011
MEAN_ANOMALY   = 285.1417

EPHEMERIS_TYPE = 0
CLASSIFICATION_TYPE = U
NORAD_CAT_ID   = 67532
ELEMENT_SET_NO = 999
REV_AT_EPOCH   = 429
BSTAR          = .11888E-2
MEAN_MOTION_DOT = .234706E-2
MEAN_MOTION_DDOT = 0

CCSDS_OMM_VERS = 2.0
CREATION_DATE  = 
ORIGINATOR     = 

OBJECT_NAME    = STARLINK-36417
OBJECT_ID      = 2026-014B
CENTER_NAME    = EARTH
REF_FRAME      = TEME
TIME_SYSTEM    = UTC
MEAN_ELEMENT_THEORY = SGP/SGP4

EPOCH          = 2026-02-10T11:21:27.192960
MEAN_MOTION    = 15.75232123
ECCENTRICITY   = .0001558
INCLINATION    = 97.2844
RA_OF_ASC_NODE = 284.9820
ARG_OF_PERICENTER = 97.3382
MEAN_ANOMALY   = 262.8061

EPHEMERIS_TYPE = 0
CLASSIFICATION_TYPE = U
NORAD_CAT_ID   = 67533
ELEMENT_SET_NO = 999
REV_AT_EPOCH   = 428
BSTAR          = .11039E-2
MEAN_MOTION_DOT = .168118E-2
MEAN_MOTION_DDOT = 0

CCSDS_OMM_VERS = 2.0
CREATION_DATE  = 
ORIGINATOR     = 

OBJECT_NAME    = STARLINK-36576
OBJECT_ID      = 2026-014C
CENTER_NAME    = EARTH
REF_FRAME      = TEME
TIME_SYSTEM    = UTC
MEAN_ELEMENT_THEORY = SGP/SGP4

EPOCH          = 2026-02-10T10:55:11.117856
MEAN_MOTION    = 15.80906802
ECCENTRICITY   = .0001576
INCLINATION    = 97.2832
RA_OF_ASC_NODE = 285.0074
ARG_OF_PERICENTER = 85.6722
MEAN_ANOMALY   = 274.4726

EPHEMERIS_TYPE = 0
CLASSIFICATION_TYPE = U
NORAD_CAT_ID   = 67534
ELEMENT_SET_NO = 999
REV_AT_EPOCH   = 428
BSTAR          = .11808E-2
MEAN_MOTION_DOT = .233141E-2
MEAN_MOTION_DDOT = 0

CCSDS_OMM_VERS = 2.0
CREATION_DATE  = 
ORIGINATOR     = 

OBJECT_NAME    = STARLINK-36574
OBJECT_ID      = 2026-014D
CENTER_NAME    = EARTH
REF_FRAME      = TEME
TIME_SYSTEM    = UTC
MEAN_ELEMENT_THEORY = SGP/SGP4

EPOCH          = 2026-02-10T10:53:20.664096
MEAN_MOTION    = 15.80854691
ECCENTRICITY   = .0001536
INCLINATION    = 97.2837
RA_OF_ASC_NODE = 285.0089
ARG_OF_PERICENTER = 94.1889
MEAN_ANOMALY   = 265.9555

EPHEMERIS_TYPE = 0
CLASSIFICATION_TYPE = U
NORAD_CAT_ID   = 67535
ELEMENT_SET_NO = 999
REV_AT_EPOCH   = 428
BSTAR          = .62649E-3
MEAN_MOTION_DOT = .121765E-2
MEAN_MOTION_DDOT = 0

CCSDS_OMM_VERS = 2.0
CREATION_DATE  = 
ORIGINATOR     = 

OBJECT_NAME    = STARLINK-36572
OBJECT_ID      = 2026-014E
CENTER_NAME    = EARTH
REF_FRAME      = TEME
TIME_SYSTEM    = UTC
MEAN_ELEMENT_THEORY = SGP/SGP4

EPOCH          = 2026-02-10T12:00:01.999296
MEAN_MOTION    = 15.75177551
ECCENTRICITY   = .0001476
INCLINATION    = 97.2844
RA_OF_ASC_NODE = 285.0434
ARG_OF_PERICENTER = 85.7393
MEAN_ANOMALY   = 144.2354

EPHEMERIS_TYPE = 0
CLASSIFICATION_TYPE = U
NORAD_CAT_ID   = 67536
ELEMENT_SET_NO = 999
REV_AT_EPOCH   = 431
BSTAR          = -.30569E-3
MEAN_MOTION_DOT = -.45459E-3
MEAN_MOTION_DDOT = 0

CCSDS_OMM_VERS = 2.0
CREATION_DATE  = 
ORIGINATOR     = 

OBJECT_NAME    = STARLINK-36561
OBJECT_ID      = 2026-014F
CENTER_NAME    = EARTH
REF_FRAME      = TEME
TIME_SYSTEM    = UTC
MEAN_ELEMENT_THEORY = SGP/SGP4

EPOCH          = 2026-02-10T12:00:01.999296
MEAN_MOTION    = 15.75200209
ECCENTRICITY   = .0001519
INCLINATION    = 97.2854
RA_OF_ASC_NODE = 285.0264
ARG_OF_PERICENTER = 87.4053
MEAN_ANOMALY   = 108.5624

EPHEMERIS_TYPE = 0
CLASSIFICATION_TYPE = U
NORAD_CAT_ID   = 67537
ELEMENT_SET_NO = 999
REV_AT_EPOCH   = 431
BSTAR          = -.38326E-3
MEAN_MOTION_DOT = -.56942E-3
MEAN_MOTION_DDOT = 0

